NORAD_CAT_ID,OBJECT_NAME,OBJECT_TYPE,EPOCH,MEAN_MOTION,ECCENTRICITY,INCLINATION,RA_OF_ASC_NODE,ARG_OF_PERICENTER,MEAN_ANOMALY,BSTAR,MEAN_MOTION_DOT,MEAN_MOTION_DDOT,TLE_LINE0,TLE_LINE1,TLE_LINE2,SEMIMAJOR_AXIS,PERIOD,APOGEE,PERIGEE,DECAYED
51716.0,STARLINK-3543,PAYLOAD,2024-02-23 17:47:12,15.0884386,0.0001501,53.2173,73.3246,91.0932,269.0232,1.5607e-05,-4e-07,0.0,0 STARLINK-3543,1 51716U 22016C   24054.74111927 -.00000040  00000-0  15607-4 0  9996,2 51716  53.2173  73.3246 0001501  91.0932 269.0232 15.08843860112033,6917.869,95.437,540.772,538.695,0.0
51716.0,STARLINK-3543,PAYLOAD,2024-02-24 01:44:09,15.08832985,0.0001696,53.2201,71.8433,104.3999,255.7181,1.104e-05,-1.12e-06,0.0,0 STARLINK-3543,1 51716U 22016C   24055.07232708 -.00000112  00000-0  11040-4 0  9991,2 51716  53.2201  71.8433 0001696 104.3999 255.7181 15.08832985112088,6917.902,95.438,540.94,538.594,0.0
51716.0,STARLINK-3543,PAYLOAD,2024-02-24 09:41:04,15.08833296,0.0001645,53.2196,70.3544,98.0521,262.0658,-9.02e-06,-4.32e-06,0.0,0 STARLINK-3543,1 51716U 22016C   24055.40353000 -.00000432  00000-0 -90200-5 0  9999,2 51716  53.2196  70.3544 0001645  98.0521 262.0658 15.08833296111065,6917.901,95.438,540.904,538.628,0.0
51716.0,STARLINK-3543,PAYLOAD,2024-02-24 17:38:00,15.08848355,0.0001643,53.2201,68.8677,96.3103,263.8076,-0.00021027,-3.634e-05,0.0,0 STARLINK-3543,1 51716U 22016C   24055.73472496 -.00003634  00000-0 -21027-3 0  9992,2 51716  53.2201  68.8677 0001643  96.3103 263.8076 15.08848355112185,6917.855,95.437,540.856,538.583,0.0
51716.0,STARLINK-3543,PAYLOAD,2024-02-25 09:31:51,15.088449,0.0001738,53.2196,65.8932,104.5381,255.5804,0.00012218,1.657e-05,0.0,0 STARLINK-3543,1 51716U 22016C   24056.39711966  .00001657  00000-0  12218-3 0  9996,2 51716  53.2196  65.8932 0001738 104.5381 255.5804 15.08844900111216,6917.865,95.437,540.933,538.528,0.0
51716.0,STARLINK-3543,PAYLOAD,2024-02-25 17:28:47,15.08844358,0.0001558,53.218,64.4053,97.628,262.4889,1.0878e-05,-1.15e-06,0.0,0 STARLINK-3543,1 51716U 22016C   24056.72832250 -.00000115  00000-0  10878-4 0  9993,2 51716  53.2180  64.4053 0001558  97.6280 262.4889 15.08844358111260,6917.867,95.437,540.81,538.654,0.0
51716.0,STARLINK-3543,PAYLOAD,2024-02-26 01:25:43,15.08835817,0.0001667,53.2187,62.9183,97.0821,263.0361,0.00011358,1.52e-05,0.0,0 STARLINK-3543,1 51716U 22016C   24057.05952612  .00001520  00000-0  11358-3 0  9998,2 51716  53.2187  62.9183 0001667  97.0821 263.0361 15.08835817112386,6917.893,95.438,540.911,538.605,0.0
51716.0,STARLINK-3543,PAYLOAD,2024-02-26 07:47:15,15.08841583,0.0001657,53.2184,61.7287,97.0092,263.1089,0.00012794,1.749e-05,0.0,0 STARLINK-3543,1 51716U 22016C   24057.32448220  .00001749  00000-0  12794-3 0  9991,2 51716  53.2184  61.7287 0001657  97.0092 263.1089 15.08841583111355,6917.876,95.437,540.887,538.594,0.0
51716.0,STARLINK-3543,PAYLOAD,2024-02-27 07:38:03,15.08838909,0.0001594,53.2187,57.2674,92.4959,267.6215,-5.502e-05,-1.164e-05,0.0,0 STARLINK-3543,1 51716U 22016C   24058.31809256 -.00001164  00000-0 -55020-4 0  9994,2 51716  53.2187  57.2674 0001594  92.4959 267.6215 15.08838909112572,6917.884,95.438,540.851,538.646,0.0
51716.0,STARLINK-3543,PAYLOAD,2024-02-27 17:10:21,15.08842678,0.0001551,53.2186,55.4826,89.6833,270.4336,-4.441e-05,-9.95e-06,0.0,0 STARLINK-3543,1 51716U 22016C   24058.71552965 -.00000995  00000-0 -44410-4 0  9992,2 51716  53.2186  55.4826 0001551  89.6833 270.4336 15.08842678111564,6917.872,95.437,540.81,538.664,0.0
51716.0,STARLINK-3543,PAYLOAD,2024-02-28 04:18:03,15.08843623,0.000168,53.2183,53.4028,86.7729,273.3455,7.379e-05,8.87e-06,0.0,0 STARLINK-3543,1 51716U 22016C   24059.17920670  .00000887  00000-0  73790-4 0  9996,2 51716  53.2183  53.4028 0001680  86.7729 273.3455 15.08843623112700,6917.869,95.437,540.897,538.572,0.0
51716.0,STARLINK-3543,PAYLOAD,2024-02-28 17:01:08,15.08845921,0.0001679,53.2181,51.0237,82.6922,277.4261,4.2943e-05,3.96e-06,0.0,0 STARLINK-3543,1 51716U 22016C   24059.70912501  .00000396  00000-0  42943-4 0  9990,2 51716  53.2181  51.0237 0001679  82.6922 277.4261 15.08845921111715,6917.862,95.437,540.889,538.566,0.0
51716.0,STARLINK-3543,PAYLOAD,2024-02-29 05:44:13,15.08840709,0.0001571,53.218,48.6426,99.7578,260.3592,7.7143e-05,9.4e-06,0.0,0 STARLINK-3543,1 51716U 22016C   24060.23904763  .00000940  00000-0  77143-4 0  9996,2 51716  53.2180  48.6426 0001571  99.7578 260.3592 15.08840709112867,6917.878,95.438,540.83,538.656,0.0
51716.0,STARLINK-3543,PAYLOAD,2024-02-29 08:54:59,15.08842782,0.0001593,53.2181,48.0476,99.5845,260.5327,9.0321e-05,1.15e-05,0.0,0 STARLINK-3543,1 51716U 22016C   24060.37152578  .00001150  00000-0  90321-4 0  9997,2 51716  53.2181  48.0476 0001593  99.5845 260.5327 15.08842782111811,6917.872,95.437,540.839,538.635,0.0
51716.0,STARLINK-3543,PAYLOAD,2024-03-01 08:45:47,15.08841518,0.0001584,53.218,43.5871,96.6516,263.4657,-1.058e-05,-4.56e-06,0.0,0 STARLINK-3543,1 51716U 22016C   24061.36513143 -.00000456  00000-0 -10580-4 0  9995,2 51716  53.2180  43.5871 0001584  96.6516 263.4657 15.08841518111962,6917.876,95.437,540.837,538.645,0.0
51716.0,STARLINK-3543,PAYLOAD,2024-03-02 05:25:47,15.08845313,0.0001577,53.2184,39.7205,95.1924,264.9248,5.6456e-05,6.11e-06,0.0,0 STARLINK-3543,1 51716U 22016C   24062.22624731  .00000611  00000-0  56456-4 0  9990,2 51716  53.2184  39.7205 0001577  95.1924 264.9248 15.08845313112097,6917.864,95.437,540.82,538.638,0.0
51716.0,STARLINK-3543,PAYLOAD,2024-03-03 05:16:35,15.08837273,0.0001612,53.2189,35.2641,94.75,265.3676,3.644e-05,2.92e-06,0.0,0 STARLINK-3543,1 51716U 22016C   24063.21985508  .00000292  00000-0  36440-4 0  9998,2 51716  53.2189  35.2641 0001612  94.7500 265.3676 15.08837273113314,6917.889,95.438,540.869,538.639,0.0
51716.0,STARLINK-3543,PAYLOAD,2024-03-03 06:51:58,15.08839238,0.0001574,53.2186,34.9656,90.0919,270.0253,5.0594e-05,5.17e-06,0.0,0 STARLINK-3543,1 51716U 22016C   24063.28609321  .00000517  00000-0  50594-4 0  9997,2 51716  53.2186  34.9656 0001574  90.0919 270.0253 15.08839238112252,6917.883,95.438,540.837,538.659,0.0
51716.0,STARLINK-3543,PAYLOAD,2024-03-04 06:42:44,15.08851887,0.0001736,53.2197,30.5054,107.5311,252.5871,0.00011891,1.605e-05,0.0,0 STARLINK-3543,1 51716U 22016C   24064.27968440  .00001605  00000-0  11891-3 0  9992,2 51716  53.2197  30.5054 0001736 107.5311 252.5871 15.08851887113478,6917.844,95.437,540.91,538.508,0.0
51716.0,STARLINK-3543,PAYLOAD,2024-03-04 14:39:41,15.08837974,0.0001385,53.2191,29.016,95.0278,265.0872,2.0727e-05,4.2e-07,0.0,0 STARLINK-3543,1 51716U 22016C   24064.61089398  .00000042  00000-0  20727-4 0  9999,2 51716  53.2191  29.0160 0001385  95.0278 265.0872 15.08837974113523,6917.887,95.438,540.71,538.793,0.0
51716.0,STARLINK-3543,PAYLOAD,2024-03-05 01:47:24,15.08827014,0.0001435,53.2191,26.9351,81.5522,278.5633,-8.6553e-05,-1.665e-05,0.0,0 STARLINK-3543,1 51716U 22016C   24065.07458813 -.00001665  00000-0 -86553-4 0  9995,2 51716  53.2191  26.9351 0001435  81.5522 278.5633 15.08827014113594,6917.92,95.438,540.778,538.792,0.0
51716.0,STARLINK-3543,PAYLOAD,2024-03-05 06:33:33,15.08831142,0.0001549,53.2189,26.0429,78.0926,282.024,-4.8009e-05,-1.052e-05,0.0,0 STARLINK-3543,1 51716U 22016C   24065.27330605 -.00001052  00000-0 -48009-4 0  9999,2 51716  53.2189  26.0429 0001549  78.0926 282.0240 15.08831142112559,6917.907,95.438,540.844,538.701,0.0
51716.0,STARLINK-3543,PAYLOAD,2024-03-05 14:30:28,15.08835834,0.0001537,53.219,24.5563,78.345,281.7715,3.5757e-05,2.81e-06,0.0,0 STARLINK-3543,1 51716U 22016C   24065.60450133  .00000281  00000-0  35757-4 0  9992,2 51716  53.2190  24.5563 0001537  78.3450 281.7715 15.08835834113674,6917.893,95.438,540.821,538.695,0.0
51716.0,STARLINK-3543,PAYLOAD,2024-03-06 03:13:33,15.08852107,0.0001449,53.2189,22.1774,92.1626,267.9532,3.2128e-05,2.24e-06,0.0,0 STARLINK-3543,1 51716U 22016C   24066.13441311  .00000224  00000-0  32128-4 0  9995,2 51716  53.2189  22.1774 0001449  92.1626 267.9532 15.08852107113755,6917.843,95.437,540.711,538.706,0.0
51716.0,STARLINK-3543,PAYLOAD,2024-03-06 06:24:19,15.08857638,0.0001471,53.2193,21.5815,92.6515,267.4646,9.5836e-05,1.238e-05,0.0,0 STARLINK-3543,1 51716U 22016C   24066.26688774  .00001238  00000-0  95836-4 0  9996,2 51716  53.2193  21.5815 0001471  92.6515 267.4646 15.08857638112705,6917.826,95.436,540.709,538.674,0.0
51716.0,STARLINK-3543,PAYLOAD,2024-03-07 03:04:20,15.08833692,9.34e-05,53.2203,17.7134,105.8021,254.3075,0.00022982,3.371e-05,0.0,0 STARLINK-3543,1 51716U 22016C   24067.12801697  .00003371  00000-0  22982-3 0  9994,2 51716  53.2203  17.7134 0000934 105.8021 254.3075 15.08833692113908,6917.9,95.438,540.411,539.119,0.0
51716.0,STARLINK-3543,PAYLOAD,2024-03-07 14:12:01,15.08851645,0.0001292,53.2188,15.6324,101.9092,258.2045,0.0001887,2.717e-05,0.0,0 STARLINK-3543,1 51716U 22016C   24067.59168634  .00002717  00000-0  18870-3 0  9996,2 51716  53.2188  15.6324 0001292 101.9092 258.2045 15.08851645112908,6917.845,95.437,540.604,538.816,0.0
51716.0,STARLINK-3543,PAYLOAD,2024-03-08 06:05:54,15.08843306,0.0001577,53.2205,12.658,92.4034,267.7138,-5.1883e-05,-1.114e-05,0.0,0 STARLINK-3543,1 51716U 22016C   24068.25409788 -.00001114  00000-0 -51883-4 0  9992,2 51716  53.2205  12.6580 0001577  92.4034 267.7138 15.08843306114078,6917.87,95.437,540.826,538.644,0.0
51716.0,STARLINK-3543,PAYLOAD,2024-03-09 12:18:13,15.08848483,0.0001424,53.2199,7.0135,101.7599,258.3553,1.8031e-05,-1e-08,0.0,0 STARLINK-3543,1 51716U 22016C   24069.51265352 -.00000001  00000-0  18031-4 0  9990,2 51716  53.2199   7.0135 0001424 101.7599 258.3553 15.08848483114264,6917.854,95.437,540.705,538.734,0.0
51716.0,STARLINK-3543,PAYLOAD,2024-03-10 02:36:42,15.08833889,0.0001337,53.2196,4.3388,87.7307,272.3838,0.00019654,2.841e-05,0.0,0 STARLINK-3543,1 51716U 22016C   24070.10882117  .00002841  00000-0  19654-3 0  9995,2 51716  53.2196   4.3388 0001337  87.7307 272.3838 15.08833889114350,6917.899,95.438,540.689,538.839,0.0
